{
  "type": "FeatureCollection",
  "features": [
    {
      "type": "Feature",
      "properties": {
        "norad_id": 2807,
        "name": "OPS 7218 (TRANSIT 16)",
        "group": "nnss",
        "lat": -61.23856966763633,
        "lon": 174.70636367809834,
        "alt_km": 1084.8477833772622,
        "timestamp": "2025-12-09T21:34:11.676273+00:00",
        "meta_object_name": "OPS 7218 (TRANSIT 16)",
        "meta_object_id": "1967-048A",
        "meta_epoch": "2025-12-09T12:15:09.098208",
        "meta_mean_motion": 13.50721383,
        "meta_eccentricity": 0.00218143,
        "meta_inclination": 89.6732,
        "meta_ra_of_asc_node": 354.1234,
        "meta_arg_of_pericenter": 122.7189,
        "meta_mean_anomaly": 31.5887,
        "meta_ephemeris_type": 0,
        "meta_classification_type": "U",
        "meta_norad_cat_id": 2807,
        "meta_element_set_no": 999,
        "meta_rev_at_epoch": 88232,
        "meta_bstar": 0.00022437316,
        "meta_mean_motion_dot": 1.55e-06,
        "meta_mean_motion_ddot": 0,
        "tle_line1": "1 02807U 67048A   25343.51052197  .00000155  00000+0  22437-3 0  9990",
        "tle_line2": "2 02807  89.6732 354.1234 0021814 122.7189  31.5887 13.50721383882320"
      },
      "geometry": {
        "type": "Point",
        "coordinates": [
          174.70636367809834,
          -61.23856966763633
        ]
      }
    },
    {
      "type": "Feature",
      "properties": {
        "norad_id": 2965,
        "name": "OPS 4947 (TRANSIT 17)",
        "group": "nnss",
        "lat": -82.13104586605654,
        "lon": 19.213493973419773,
        "alt_km": 1038.8979508621396,
        "timestamp": "2025-12-09T21:34:11.676296+00:00",
        "meta_object_name": "OPS 4947 (TRANSIT 17)",
        "meta_object_id": "1967-092A",
        "meta_epoch": "2025-12-09T09:36:30.324672",
        "meta_mean_motion": 13.53452312,
        "meta_eccentricity": 0.00459991,
        "meta_inclination": 89.2499,
        "meta_ra_of_asc_node": 24.6904,
        "meta_arg_of_pericenter": 244.5157,
        "meta_mean_anomaly": 126.0877,
        "meta_ephemeris_type": 0,
        "meta_classification_type": "U",
        "meta_norad_cat_id": 2965,
        "meta_element_set_no": 999,
        "meta_rev_at_epoch": 87052,
        "meta_bstar": 0.00025971381,
        "meta_mean_motion_dot": 1.87e-06,
        "meta_mean_motion_ddot": 0,
        "tle_line1": "1 02965U 67092A   25343.40035098  .00000187  00000+0  25971-3 0  9994",
        "tle_line2": "2 02965  89.2499  24.6904 0045999 244.5157 126.0877 13.53452312870526"
      },
      "geometry": {
        "type": "Point",
        "coordinates": [
          19.213493973419773,
          -82.13104586605654
        ]
      }
    },
    {
      "type": "Feature",
      "properties": {
        "norad_id": 3133,
        "name": "OPS 7034 (TRANSIT 18)",
        "group": "nnss",
        "lat": 85.17360527343777,
        "lon": -86.69633445303002,
        "alt_km": 1060.7810336273733,
        "timestamp": "2025-12-09T21:34:11.676310+00:00",
        "meta_object_name": "OPS 7034 (TRANSIT 18)",
        "meta_object_id": "1968-012A",
        "meta_epoch": "2025-12-09T07:29:45.032928",
        "meta_mean_motion": 13.5156455,
        "meta_eccentricity": 0.0073521,
        "meta_inclination": 90.0276,
        "meta_ra_of_asc_node": 273.6291,
        "meta_arg_of_pericenter": 179.0874,
        "meta_mean_anomaly": 295.335,
        "meta_ephemeris_type": 0,
        "meta_classification_type": "U",
        "meta_norad_cat_id": 3133,
        "meta_element_set_no": 999,
        "meta_rev_at_epoch": 56872,
        "meta_bstar": 0.00028816,
        "meta_mean_motion_dot": 2e-06,
        "meta_mean_motion_ddot": 0,
        "tle_line1": "1 03133U 68012A   25343.31232677  .00000200  00000+0  28816-3 0  9994",
        "tle_line2": "2 03133  90.0276 273.6291 0073521 179.0874 295.3350 13.51564550568720"
      },
      "geometry": {
        "type": "Point",
        "coordinates": [
          -86.69633445303002,
          85.17360527343777
        ]
      }
    },
    {
      "type": "Feature",
      "properties": {
        "norad_id": 4507,
        "name": "NNSS 19 (TRANSIT 19)",
        "group": "nnss",
        "lat": 61.70771971008271,
        "lon": -125.47873250088162,
        "alt_km": 1123.5665580442346,
        "timestamp": "2025-12-09T21:34:11.676322+00:00",
        "meta_object_name": "NNSS 19 (TRANSIT 19)",
        "meta_object_id": "1970-067A",
        "meta_epoch": "2025-12-09T10:36:12.002112",
        "meta_mean_motion": 13.51314006,
        "meta_eccentricity": 0.01707452,
        "meta_inclination": 90.0057,
        "meta_ra_of_asc_node": 234.5316,
        "meta_arg_of_pericenter": 303.0164,
        "meta_mean_anomaly": 55.4679,
        "meta_ephemeris_type": 0,
        "meta_classification_type": "U",
        "meta_norad_cat_id": 4507,
        "meta_element_set_no": 999,
        "meta_rev_at_epoch": 72177,
        "meta_bstar": 0.00031890867,
        "meta_mean_motion_dot": 2.34e-06,
        "meta_mean_motion_ddot": 0,
        "tle_line1": "1 04507U 70067A   25343.44180558  .00000234  00000+0  31891-3 0  9991",
        "tle_line2": "2 04507  90.0057 234.5316 0170745 303.0164  55.4679 13.51314006721778"
      },
      "geometry": {
        "type": "Point",
        "coordinates": [
          -125.47873250088162,
          61.70771971008271
        ]
      }
    },
    {
      "type": "Feature",
      "properties": {
        "norad_id": 6909,
        "name": "NNSS 20 (TRANSIT 20)",
        "group": "nnss",
        "lat": -73.42014997886004,
        "lon": -105.38664664234298,
        "alt_km": 1110.2317034256357,
        "timestamp": "2025-12-09T21:34:11.676334+00:00",
        "meta_object_name": "NNSS 20 (TRANSIT 20)",
        "meta_object_id": "1973-081A",
        "meta_epoch": "2025-12-09T11:25:36.409440",
        "meta_mean_motion": 13.71432035,
        "meta_eccentricity": 0.0156617,
        "meta_inclination": 89.8562,
        "meta_ra_of_asc_node": 255.103,
        "meta_arg_of_pericenter": 87.977,
        "meta_mean_anomaly": 273.932,
        "meta_ephemeris_type": 0,
        "meta_classification_type": "U",
        "meta_norad_cat_id": 6909,
        "meta_element_set_no": 999,
        "meta_rev_at_epoch": 80316,
        "meta_bstar": 0.00036387222,
        "meta_mean_motion_dot": 3.69e-06,
        "meta_mean_motion_ddot": 0,
        "tle_line1": "1 06909U 73081A   25343.47611585  .00000369  00000+0  36387-3 0  9994",
        "tle_line2": "2 06909  89.8562 255.1030 0156617  87.9770 273.9320 13.71432035803167"
      },
      "geometry": {
        "type": "Point",
        "coordinates": [
          -105.38664664234298,
          -73.42014997886004
        ]
      }
    },
    {
      "type": "Feature",
      "properties": {
        "norad_id": 10457,
        "name": "TRANSAT",
        "group": "nnss",
        "lat": 88.91854421965564,
        "lon": 97.69672954158142,
        "alt_km": 1074.6757946355601,
        "timestamp": "2025-12-09T21:34:11.676345+00:00",
        "meta_object_name": "TRANSAT",
        "meta_object_id": "1977-106A",
        "meta_epoch": "2025-12-09T12:17:08.947968",
        "meta_mean_motion": 13.48942917,
        "meta_eccentricity": 0.00250865,
        "meta_inclination": 89.6481,
        "meta_ra_of_asc_node": 78.7113,
        "meta_arg_of_pericenter": 198.9497,
        "meta_mean_anomaly": 172.8613,
        "meta_ephemeris_type": 0,
        "meta_classification_type": "U",
        "meta_norad_cat_id": 10457,
        "meta_element_set_no": 999,
        "meta_rev_at_epoch": 36700,
        "meta_bstar": 0.00021586545,
        "meta_mean_motion_dot": 1.45e-06,
        "meta_mean_motion_ddot": 0,
        "tle_line1": "1 10457U 77106A   25343.51190912  .00000145  00000+0  21587-3 0  9998",
        "tle_line2": "2 10457  89.6481  78.7113 0025086 198.9497 172.8613 13.48942917367002"
      },
      "geometry": {
        "type": "Point",
        "coordinates": [
          97.69672954158142,
          88.91854421965564
        ]
      }
    },
    {
      "type": "Feature",
      "properties": {
        "norad_id": 12458,
        "name": "NOVA 1",
        "group": "nnss",
        "lat": -73.06358258938431,
        "lon": -88.08972717366237,
        "alt_km": 1189.0631443174334,
        "timestamp": "2025-12-09T21:34:11.676356+00:00",
        "meta_object_name": "NOVA 1",
        "meta_object_id": "1981-044A",
        "meta_epoch": "2025-12-09T13:05:31.890336",
        "meta_mean_motion": 13.23277984,
        "meta_eccentricity": 0.00158191,
        "meta_inclination": 89.8524,
        "meta_ra_of_asc_node": 91.4303,
        "meta_arg_of_pericenter": 111.8298,
        "meta_mean_anomaly": 259.3047,
        "meta_ephemeris_type": 0,
        "meta_classification_type": "U",
        "meta_norad_cat_id": 12458,
        "meta_element_set_no": 999,
        "meta_rev_at_epoch": 15144,
        "meta_bstar": 0.00022171859,
        "meta_mean_motion_dot": 1.03e-06,
        "meta_mean_motion_ddot": 0,
        "tle_line1": "1 12458U 81044A   25343.54550799  .00000103  00000+0  22172-3 0  9998",
        "tle_line2": "2 12458  89.8524  91.4303 0015819 111.8298 259.3047 13.23277984151443"
      },
      "geometry": {
        "type": "Point",
        "coordinates": [
          -88.08972717366237,
          -73.06358258938431
        ]
      }
    }
  ]
}